{
  "norad_id": 65920,
  "name": "STARLINK-33902",
  "history": [
    {
      "epoch": "2026-03-28T16:36:15.508224",
      "apogee_km": 476.1581396219781,
      "perigee_km": 474.1172344201841,
      "latitude_deg": -38.769017529178896,
      "longitude_deg": 118.41723135998473,
      "semi_major_axis_km": 6853.274687021081,
      "eccentricity": 0.0001489,
      "inclination_deg": 53.1607,
      "raan_deg": 77.6821,
      "arg_perigee_deg": 96.3476,
      "mean_anomaly_deg": 263.7694,
      "mean_motion_rev_day": 15.30225917
    },
    {
      "epoch": "2026-03-29T05:08:40.132896",
      "apogee_km": 475.9014925799511,
      "perigee_km": 474.3005761751192,
      "latitude_deg": -13.017804719492686,
      "longitude_deg": 168.577925439924,
      "semi_major_axis_km": 6853.238034377535,
      "eccentricity": 0.0001168,
      "inclination_deg": 53.1604,
      "raan_deg": 75.2564,
      "arg_perigee_deg": 100.2004,
      "mean_anomaly_deg": 259.9129,
      "mean_motion_rev_day": 15.30238193
    }
  ]
}